{
    "links": {
        "self": "http://www.neowsapp.com/rest/v1/neo/3180176?api_key=iIulBulltgU6a56xZRHN4H3l9WmuAYTsLGpBGhQ2"
    },
    "id": "3180176",
    "neo_reference_id": "3180176",
    "name": "(2004 HC33)",
    "designation": "2004 HC33",
    "nasa_jpl_url": "http://ssd.jpl.nasa.gov/sbdb.cgi?sstr=3180176",
    "absolute_magnitude_h": 26.0,
    "estimated_diameter": {
        "kilometers": {
            "estimated_diameter_min": 0.0167708462,
            "estimated_diameter_max": 0.0375007522
        },
        "meters": {
            "estimated_diameter_min": 16.7708462163,
            "estimated_diameter_max": 37.5007521798
        },
        "miles": {
            "estimated_diameter_min": 0.0104209175,
            "estimated_diameter_max": 0.0233018799
        },
        "feet": {
            "estimated_diameter_min": 55.0224631002,
            "estimated_diameter_max": 123.0339677816
        }
    },
    "is_potentially_hazardous_asteroid": false,
    "close_approach_data": [
        {
            "close_approach_date": "2004-04-25",
            "close_approach_date_full": "2004-Apr-25 13:25",
            "epoch_date_close_approach": 1082899500000,
            "relative_velocity": {
                "kilometers_per_second": "9.0219111558",
                "kilometers_per_hour": "32478.8801609182",
                "miles_per_hour": "20181.1130644328"
            },
            "miss_distance": {
                "astronomical": "0.0183411978",
                "lunar": "7.1347259442",
                "kilometers": "2743804.124128686",
                "miles": "1704920.8245044268"
            },
            "orbiting_body": "Earth"
        },
        {
            "close_approach_date": "2072-05-10",
            "close_approach_date_full": "2072-May-10 13:01",
            "epoch_date_close_approach": 3230110860000,
            "relative_velocity": {
                "kilometers_per_second": "8.5151532738",
                "kilometers_per_hour": "30654.551785573",
                "miles_per_hour": "19047.5463580967"
            },
            "miss_distance": {
                "astronomical": "0.0785833806",
                "lunar": "30.5689350534",
                "kilometers": "11755906.355159322",
                "miles": "7304781.4818777636"
            },
            "orbiting_body": "Earth"
        }
    ],
    "orbital_data": {
        "orbit_id": "11",
        "orbit_determination_date": "2017-04-06 09:12:52",
        "first_observation_date": "2004-04-23",
        "last_observation_date": "2004-04-27",
        "data_arc_in_days": 4,
        "observations_used": 33,
        "orbit_uncertainty": "8",
        "minimum_orbit_intersection": ".0178002",
        "jupiter_tisserand_invariant": "3.978",
        "epoch_osculation": "2453120.5",
        "eccentricity": ".4296378179865504",
        "semi_major_axis": "1.766172936027234",
        "inclination": "11.30644376402368",
        "ascending_node_longitude": "212.4714177354253",
        "orbital_period": "857.3304821369129",
        "perihelion_distance": "1.007358249605594",
        "perihelion_argument": "20.01275849311542",
        "aphelion_distance": "2.524987622448874",
        "perihelion_time": "2453135.809803656917",
        "mean_anomaly": "353.5712896819526",
        "mean_motion": ".4199080838729693",
        "equinox": "J2000",
        "orbit_class": {
            "orbit_class_type": "APO",
            "orbit_class_description": "Near-Earth asteroid orbits which cross the Earth’s orbit similar to that of 1862 Apollo",
            "orbit_class_range": "a (semi-major axis) > 1.0 AU; q (perihelion) < 1.017 AU"
        }
    },
    "is_sentry_object": false
}